{"type": "FeatureCollection", "features": [ {"type": "Feature", "properties": {"norad_id": 66509, "name": "STARLINK-35598", "group": "last-30-days", "lat": 10.540491487289355, "lon": -38.4277105699943, "alt_km": 409.88835168229434, "timestamp": "2025-12-07T22:37:41.856838+00:00", "meta": {"OBJECT_NAME": "STARLINK-35598", "OBJECT_ID": "2025-263AA", "EPOCH": "2025-12-07T06:00:04.999968", "MEAN_MOTION": 15.55008372, "ECCENTRICITY": 0.0001694, "INCLINATION": 43.0001, "RA_OF_ASC_NODE": 157.1607, "ARG_OF_PERICENTER": 261.2151, "MEAN_ANOMALY": 344.1951, "EPHEMERIS_TYPE": 0, "CLASSIFICATION_TYPE": "U", "NORAD_CAT_ID": 66509, "ELEMENT_SET_NO": 999, "REV_AT_EPOCH": 475, "BSTAR": -0.034363522, "MEAN_MOTION_DOT": -0.02104542, "MEAN_MOTION_DDOT": 0}, "tle": {"line1": "1 66509U 25263AA  25341.25005787 -.02104542  00000+0 -34364-1 0  9993", "line2": "2 66509  43.0001 157.1607 0001694 261.2151 344.1951 15.55008372  4750"}}, "geometry": {"type": "Point", "coordinates": [-38.4277105699943, 10.540491487289355]}}, {"type": "Feature", "properties": {"norad_id": 66510, "name": "STARLINK-35600", "group": "last-30-days", "lat": 14.34529608976409, "lon": -42.8235858437233, "alt_km": 409.38521866524025, "timestamp": "2025-12-07T22:37:41.856848+00:00", "meta": {"OBJECT_NAME": "STARLINK-35600", "OBJECT_ID": "2025-263AB", "EPOCH": "2025-12-07T06:00:04.999968", "MEAN_MOTION": 15.55005387, "ECCENTRICITY": 0.00015548, "INCLINATION": 43.0002, "RA_OF_ASC_NODE": 157.1754, "ARG_OF_PERICENTER": 260.0223, "MEAN_ANOMALY": 339.6391, "EPHEMERIS_TYPE": 0, "CLASSIFICATION_TYPE": "U", "NORAD_CAT_ID": 66510, "ELEMENT_SET_NO": 999, "REV_AT_EPOCH": 475, "BSTAR": -0.034266078, "MEAN_MOTION_DOT": -0.02098931, "MEAN_MOTION_DDOT": 0}, "tle": {"line1": "1 66510U 25263AB  25341.25005787 -.02098931  00000+0 -34266-1 0  9990", "line2": "2 66510  43.0002 157.1754 0001554 260.0223 339.6391 15.55005387  4758"}}, "geometry": {"type": "Point", "coordinates": [-42.8235858437233, 14.34529608976409]}}, {"type": "Feature", "properties": {"norad_id": 66511, "name": "STARLINK-35444", "group": "last-30-days", "lat": 11.815496319680229, "lon": -39.87695975739677, "alt_km": 409.5953640128937, "timestamp": "2025-12-07T22:37:41.856860+00:00", "meta": {"OBJECT_NAME": "STARLINK-35444", "OBJECT_ID": "2025-263AC", "EPOCH": "2025-12-07T06:00:04.999968", "MEAN_MOTION": 15.55010487, "ECCENTRICITY": 0.00015656, "INCLINATION": 43, "RA_OF_ASC_NODE": 157.1664, "ARG_OF_PERICENTER": 257.1118, "MEAN_ANOMALY": 346.3792, "EPHEMERIS_TYPE": 0, "CLASSIFICATION_TYPE": "U", "NORAD_CAT_ID": 66511, "ELEMENT_SET_NO": 999, "REV_AT_EPOCH": 475, "BSTAR": -0.034363574, "MEAN_MOTION_DOT": -0.02104604, "MEAN_MOTION_DDOT": 0}, "tle": {"line1": "1 66511U 25263AC  25341.25005787 -.02104604  00000+0 -34364-1 0  9995", "line2": "2 66511  43.0000 157.1664 0001565 257.1118 346.3792 15.55010487  4756"}}, "geometry": {"type": "Point", "coordinates": [-39.87695975739677, 11.815496319680229]}}, {"type": "Feature", "properties": {"norad_id": 66512, "name": "STARLINK-35366", "group": "last-30-days", "lat": 9.25004087856807, "lon": -36.97937261406823, "alt_km": 409.8135675784679, "timestamp": "2025-12-07T22:37:41.856871+00:00", "meta": {"OBJECT_NAME": "STARLINK-35366", "OBJECT_ID": "2025-263AD", "EPOCH": "2025-12-07T06:00:04.999968", "MEAN_MOTION": 15.55006379, "ECCENTRICITY": 0.00015325, "INCLINATION": 43.0001, "RA_OF_ASC_NODE": 157.1563, "ARG_OF_PERICENTER": 255.8177, "MEAN_ANOMALY": 351.5077, "EPHEMERIS_TYPE": 0, "CLASSIFICATION_TYPE": "U", "NORAD_CAT_ID": 66512, "ELEMENT_SET_NO": 999, "REV_AT_EPOCH": 475, "BSTAR": -0.034237118, "MEAN_MOTION_DOT": -0.02097407, "MEAN_MOTION_DDOT": 0}, "tle": {"line1": "1 66512U 25263AD  25341.25005787 -.02097407  00000+0 -34237-1 0  9997", "line2": "2 66512  43.0001 157.1563 0001532 255.8177 351.5077 15.55006379  4759"}}, "geometry": {"type": "Point", "coordinates": [-36.97937261406823, 9.25004087856807]}}, {"type": "Feature", "properties": {"norad_id": 66513, "name": "STARLINK-35692", "group": "last-30-days", "lat": 13.06960415521071, "lon": -41.324521845251674, "alt_km": 409.44304437642495, "timestamp": "2025-12-07T22:37:41.856881+00:00", "meta": {"OBJECT_NAME": "STARLINK-35692", "OBJECT_ID": "2025-263AE", "EPOCH": "2025-12-07T06:00:04.999968", "MEAN_MOTION": 15.54997023, "ECCENTRICITY": 0.00013971, "INCLINATION": 43.0003, "RA_OF_ASC_NODE": 157.1715, "ARG_OF_PERICENTER": 260.2332, "MEAN_ANOMALY": 341.3446, "EPHEMERIS_TYPE": 0, "CLASSIFICATION_TYPE": "U", "NORAD_CAT_ID": 66513, "ELEMENT_SET_NO": 999, "REV_AT_EPOCH": 475, "BSTAR": -0.033910117, "MEAN_MOTION_DOT": -0.02078832, "MEAN_MOTION_DDOT": 0}, "tle": {"line1": "1 66513U 25263AE  25341.25005787 -.02078832  00000+0 -33910-1 0  9996", "line2": "2 66513  43.0003 157.1715 0001397 260.2332 341.3446 15.54997023  4754"}}, "geometry": {"type": "Point", "coordinates": [-41.324521845251674, 13.06960415521071]}}, {"type": "Feature", "properties": {"norad_id": 66514, "name": "SENTINEL-6B", "group": "last-30-days", "lat": -58.757039788162984, "lon": 125.2714597040994, "alt_km": 1315.9971448435745, "timestamp": "2025-12-07T22:37:41.856894+00:00", "meta": {"OBJECT_NAME": "SENTINEL-6B", "OBJECT_ID": "2025-264A", "EPOCH": "2025-12-05T07:31:22.416096", "MEAN_MOTION": 12.85877769, "ECCENTRICITY": 0.00115488, "INCLINATION": 66.0393, "RA_OF_ASC_NODE": 177.917, "ARG_OF_PERICENTER": 268.4031, "MEAN_ANOMALY": 91.5664, "EPHEMERIS_TYPE": 0, "CLASSIFICATION_TYPE": "U", "NORAD_CAT_ID": 66514, "ELEMENT_SET_NO": 999, "REV_AT_EPOCH": 233, "BSTAR": 0.00030181714, "MEAN_MOTION_DOT": 1.3e-07, "MEAN_MOTION_DDOT": 0}, "tle": {"line1": "1 66514U 25264A   25339.31345389  .00000013  00000+0  30182-3 0  9999", "line2": "2 66514  66.0393 177.9170 0011548 268.4031  91.5664 12.85877769  2335"}}, "geometry": {"type": "Point", "coordinates": [125.2714597040994, -58.757039788162984]}}, {"type": "Feature", "properties": {"norad_id": 66516, "name": "STARLINK-35924", "group": "last-30-days", "lat": -37.309714182829815, "lon": 27.282785190538764, "alt_km": 391.44225162378007, "timestamp": "2025-12-07T22:37:41.856905+00:00", "meta": {"OBJECT_NAME": "STARLINK-35924", "OBJECT_ID": "2025-265A", "EPOCH": "2025-12-07T06:00:04.999968", "MEAN_MOTION": 15.62253031, "ECCENTRICITY": 0.00015303, "INCLINATION": 43.0003, "RA_OF_ASC_NODE": 86.2627, "ARG_OF_PERICENTER": 274.5364, "MEAN_ANOMALY": 85.4113, "EPHEMERIS_TYPE": 0, "CLASSIFICATION_TYPE": "U", "NORAD_CAT_ID": 66516, "ELEMENT_SET_NO": 999, "REV_AT_EPOCH": 409, "BSTAR": -0.024513282, "MEAN_MOTION_DOT": -0.01957883, "MEAN_MOTION_DDOT": 0}, "tle": {"line1": "1 66516U 25265A   25341.25005787 -.01957883  00000+0 -24513-1 0  9991", "line2": "2 66516  43.0003  86.2627 0001530 274.5364  85.4113 15.62253031  4090"}}, "geometry": {"type": "Point", "coordinates": [27.282785190538764, -37.309714182829815]}}, {"type": "Feature", "properties": {"norad_id": 66517, "name": "STARLINK-35937", "group": "last-30-days", "lat": -36.538026266594564, "lon": 29.47032235267741, "alt_km": 391.38745550172644, "timestamp": "2025-12-07T22:37:41.856915+00:00", "meta": {"OBJECT_NAME": "STARLINK-35937", "OBJECT_ID": "2025-265B", "EPOCH": "2025-12-07T06:00:04.999968", "MEAN_MOTION": 15.62250515, "ECCENTRICITY": 0.000157, "INCLINATION": 43, "RA_OF_ASC_NODE": 86.2585, "ARG_OF_PERICENTER": 275.1608, "MEAN_ANOMALY": 86.707, "EPHEMERIS_TYPE": 0, "CLASSIFICATION_TYPE": "U", "NORAD_CAT_ID": 66517, "ELEMENT_SET_NO": 999, "REV_AT_EPOCH": 411, "BSTAR": -0.02449656, "MEAN_MOTION_DOT": -0.01956566, "MEAN_MOTION_DDOT": 0}, "tle": {"line1": "1 66517U 25265B   25341.25005787 -.01956566  00000+0 -24497-1 0  9990", "line2": "2 66517  43.0000  86.2585 0001570 275.1608  86.7070 15.62250515  4116"}}, "geometry": {"type": "Point", "coordinates": [29.47032235267741, -36.538026266594564]}}, {"type": "Feature", "properties": {"norad_id": 66518, "name": "STARLINK-35962", "group": "last-30-days", "lat": -35.726524653891175, "lon": 31.614893448264727, "alt_km": 391.36489582272407, "timestamp": "2025-12-07T22:37:41.856926+00:00", "meta": {"OBJECT_NAME": "STARLINK-35962", "OBJECT_ID": "2025-265C", "EPOCH": "2025-12-07T06:00:04.999968", "MEAN_MOTION": 15.62250457, "ECCENTRICITY": 0.00015477, "INCLINATION": 43.0001, "RA_OF_ASC_NODE": 86.2534, "ARG_OF_PERICENTER": 275.8012, "MEAN_ANOMALY": 87.9825, "EPHEMERIS_TYPE": 0, "CLASSIFICATION_TYPE": "U", "NORAD_CAT_ID": 66518, "ELEMENT_SET_NO": 999, "REV_AT_EPOCH": 411, "BSTAR": -0.024477171, "MEAN_MOTION_DOT": -0.01955183, "MEAN_MOTION_DDOT": 0}, "tle": {"line1": "1 66518U 25265C   25341.25005787 -.01955183  00000+0 -24477-1 0  9993", "line2": "2 66518  43.0001  86.2534 0001547 275.8012  87.9825 15.62250457  4118"}}, "geometry": {"type": "Point", "coordinates": [31.614893448264727, -35.726524653891175]}}, {"type": "Feature", "properties": {"norad_id": 66519, "name": "STARLINK-35931", "group": "last-30-days", "lat": -34.877744392689095, "lon": 33.71481047441615, "alt_km": 391.3294026029798, "timestamp": "2025-12-07T22:37:41.856936+00:00", "meta": {"OBJECT_NAME": "STARLINK-35931", "OBJECT_ID": "2025-265D", "EPOCH": "2025-12-07T06:00:04.999968", "MEAN_MOTION": 15.62250074, "ECCENTRICITY": 0.00015435, "INCLINATION": 43.0002, "RA_OF_ASC_NODE": 86.2484, "ARG_OF_PERICENTER": 276.3339, "MEAN_ANOMALY": 89.3662, "EPHEMERIS_TYPE": 0, "CLASSIFICATION_TYPE": "U", "NORAD_CAT_ID": 66519, "ELEMENT_SET_NO": 999, "REV_AT_EPOCH": 411, "BSTAR": -0.024459264, "MEAN_MOTION_DOT": -0.01953895, "MEAN_MOTION_DDOT": 0}, "tle": {"line1": "1 66519U 25265D   25341.25005787 -.01953895  00000+0 -24459-1 0  9992", "line2": "2 66519  43.0002  86.2484 0001543 276.3339  89.3662 15.62250074  4118"}}, "geometry": {"type": "Point", "coordinates": [33.71481047441615, -34.877744392689095]}}]}